{
  "links" : {
    "next" : "https://api.nasa.gov/neo/rest/v1/feed?start_date=2001-05-23&end_date=2001-05-23&detailed=true&api_key=t0TVs3DtDT2H8Oy2Zy8m2eVrNsAVKAexjcZXUckd",
    "prev" : "https://api.nasa.gov/neo/rest/v1/feed?start_date=2001-05-21&end_date=2001-05-21&detailed=true&api_key=t0TVs3DtDT2H8Oy2Zy8m2eVrNsAVKAexjcZXUckd",
    "self" : "https://api.nasa.gov/neo/rest/v1/feed?start_date=2001-05-22&end_date=2001-05-22&detailed=true&api_key=t0TVs3DtDT2H8Oy2Zy8m2eVrNsAVKAexjcZXUckd"
  },
  "element_count" : 3,
  "near_earth_objects" : {
    "2001-05-22" : [ {
      "links" : {
        "self" : "https://api.nasa.gov/neo/rest/v1/neo/3249865?api_key=t0TVs3DtDT2H8Oy2Zy8m2eVrNsAVKAexjcZXUckd"
      },
      "neo_reference_id" : "3249865",
      "name" : "(2004 QA2)",
      "nasa_jpl_url" : "http://ssd.jpl.nasa.gov/sbdb.cgi?sstr=3249865",
      "absolute_magnitude_h" : 22.3,
      "estimated_diameter" : {
        "kilometers" : {
          "estimated_diameter_min" : 0.0921626549,
          "estimated_diameter_max" : 0.2060819612
        },
        "meters" : {
          "estimated_diameter_min" : 92.1626548503,
          "estimated_diameter_max" : 206.0819612321
        },
        "miles" : {
          "estimated_diameter_min" : 0.057267201,
          "estimated_diameter_max" : 0.1280533543
        },
        "feet" : {
          "estimated_diameter_min" : 302.370924539,
          "estimated_diameter_max" : 676.1219416887
        }
      },
      "is_potentially_hazardous_asteroid" : false,
      "close_approach_data" : [ {
        "close_approach_date" : "2001-05-22",
        "epoch_date_close_approach" : 990514800000,
        "relative_velocity" : {
          "kilometers_per_second" : "18.1336082836",
          "kilometers_per_hour" : "65280.98982109",
          "miles_per_hour" : "40563.0683696656"
        },
        "miss_distance" : {
          "astronomical" : "0.3886717418",
          "lunar" : "151.1933135986",
          "kilometers" : "58144468",
          "miles" : "36129296"
        },
        "orbiting_body" : "Earth"
      } ],
      "orbital_data" : {
        "orbit_id" : "13",
        "orbit_determination_date" : "2017-04-06 09:12:27",
        "orbit_uncertainty" : "7",
        "minimum_orbit_intersection" : ".0322434",
        "jupiter_tisserand_invariant" : "3.534",
        "epoch_osculation" : "2458000.5",
        "eccentricity" : ".5141572371086255",
        "semi_major_axis" : "2.124227963444901",
        "inclination" : "8.355333053671343",
        "ascending_node_longitude" : "132.8228386352625",
        "orbital_period" : "1130.837259100315",
        "perihelion_distance" : "1.032040782771188",
        "perihelion_argument" : "159.4420687206193",
        "aphelion_distance" : "3.216415144118613",
        "perihelion_time" : "2457728.842620286996",
        "mean_anomaly" : "86.48163642440274",
        "mean_motion" : ".3183481947582918",
        "equinox" : "J2000"
      }
    }, {
      "links" : {
        "self" : "https://api.nasa.gov/neo/rest/v1/neo/2153349?api_key=t0TVs3DtDT2H8Oy2Zy8m2eVrNsAVKAexjcZXUckd"
      },
      "neo_reference_id" : "2153349",
      "name" : "153349 (2001 PJ9)",
      "nasa_jpl_url" : "http://ssd.jpl.nasa.gov/sbdb.cgi?sstr=2153349",
      "absolute_magnitude_h" : 18.5,
      "estimated_diameter" : {
        "kilometers" : {
          "estimated_diameter_min" : 0.5303407233,
          "estimated_diameter_max" : 1.1858779086
        },
        "meters" : {
          "estimated_diameter_min" : 530.3407233187,
          "estimated_diameter_max" : 1185.8779085771
        },
        "miles" : {
          "estimated_diameter_min" : 0.3295383456,
          "estimated_diameter_max" : 0.7368701419
        },
        "feet" : {
          "estimated_diameter_min" : 1739.963058693,
          "estimated_diameter_max" : 3890.675677576
        }
      },
      "is_potentially_hazardous_asteroid" : false,
      "close_approach_data" : [ {
        "close_approach_date" : "2001-05-22",
        "epoch_date_close_approach" : 990514800000,
        "relative_velocity" : {
          "kilometers_per_second" : "16.7793130781",
          "kilometers_per_hour" : "60405.5270810977",
          "miles_per_hour" : "37533.6454243632"
        },
        "miss_distance" : {
          "astronomical" : "0.3531356678",
          "lunar" : "137.3697814941",
          "kilometers" : "52828344",
          "miles" : "32826012"
        },
        "orbiting_body" : "Earth"
      } ],
      "orbital_data" : {
        "orbit_id" : "36",
        "orbit_determination_date" : "2017-04-06 09:27:05",
        "orbit_uncertainty" : "0",
        "minimum_orbit_intersection" : ".0514994",
        "jupiter_tisserand_invariant" : "3.782",
        "epoch_osculation" : "2458000.5",
        "eccentricity" : ".6392071594128719",
        "semi_major_axis" : "1.798965705003238",
        "inclination" : "10.53794775193678",
        "ascending_node_longitude" : "283.8580470646182",
        "orbital_period" : "881.3182290549536",
        "perihelion_distance" : ".649053946826944",
        "perihelion_argument" : "291.1495251740141",
        "aphelion_distance" : "2.948877463179533",
        "perihelion_time" : "2458206.487195346938",
        "mean_anomaly" : "275.8585538342771",
        "mean_motion" : ".4084790126104978",
        "equinox" : "J2000"
      }
    }, {
      "links" : {
        "self" : "https://api.nasa.gov/neo/rest/v1/neo/3125003?api_key=t0TVs3DtDT2H8Oy2Zy8m2eVrNsAVKAexjcZXUckd"
      },
      "neo_reference_id" : "3125003",
      "name" : "(2002 JE9)",
      "nasa_jpl_url" : "http://ssd.jpl.nasa.gov/sbdb.cgi?sstr=3125003",
      "absolute_magnitude_h" : 21.2,
      "estimated_diameter" : {
        "kilometers" : {
          "estimated_diameter_min" : 0.1529519353,
          "estimated_diameter_max" : 0.3420109247
        },
        "meters" : {
          "estimated_diameter_min" : 152.9519353442,
          "estimated_diameter_max" : 342.0109247198
        },
        "miles" : {
          "estimated_diameter_min" : 0.095039897,
          "estimated_diameter_max" : 0.2125156703
        },
        "feet" : {
          "estimated_diameter_min" : 501.8108275547,
          "estimated_diameter_max" : 1122.0831222578
        }
      },
      "is_potentially_hazardous_asteroid" : true,
      "close_approach_data" : [ {
        "close_approach_date" : "2001-05-22",
        "epoch_date_close_approach" : 990514800000,
        "relative_velocity" : {
          "kilometers_per_second" : "9.8903985538",
          "kilometers_per_hour" : "35605.434793812",
          "miles_per_hour" : "22123.8325250772"
        },
        "miss_distance" : {
          "astronomical" : "0.4376013023",
          "lunar" : "170.2268981934",
          "kilometers" : "65464224",
          "miles" : "40677584"
        },
        "orbiting_body" : "Earth"
      } ],
      "orbital_data" : {
        "orbit_id" : "29",
        "orbit_determination_date" : "2017-04-06 09:15:11",
        "orbit_uncertainty" : "0",
        "minimum_orbit_intersection" : ".00488139",
        "jupiter_tisserand_invariant" : "5.686",
        "epoch_osculation" : "2458000.5",
        "eccentricity" : ".4166461567271588",
        "semi_major_axis" : "1.067897393652302",
        "inclination" : "8.830020810798137",
        "ascending_node_longitude" : "200.0636036521729",
        "orbital_period" : "403.0813613943241",
        "perihelion_distance" : ".6229620488081204",
        "perihelion_argument" : "255.4158405782897",
        "aphelion_distance" : "1.512832738496483",
        "perihelion_time" : "2457958.881175010447",
        "mean_anomaly" : "37.17060234293982",
        "mean_motion" : ".8931199367658712",
        "equinox" : "J2000"
      }
    } ]
  }
}